#aV2008  7  5  0  0   .00000000      96 DD+AD WGS84 FIT  NGA
## 1486 518400.00000000   900.00000000 54652  .0000000000000
+   31     2  3  4  5  6  7  8  9 10 11 12 13 14 15 16 17 18
+         19 20 21 22 23 24 25 26 27 28 29 30 31 32  0  0  0
+          0  0  0  0  0  0  0  0  0  0  0  0  0  0  0  0  0
+          0  0  0  0  0  0  0  0  0  0  0  0  0  0  0  0  0
+          0  0  0  0  0  0  0  0  0  0  0  0  0  0  0  0  0
++         0  0  0  0  0  0  0  0  0  0  0  0  0  0  0  0  0
++         0  0  0  0  0  0  0  0  0  0  0  0  0  0  0  0  0
++         0  0  0  0  0  0  0  0  0  0  0  0  0  0  0  0  0
++         0  0  0  0  0  0  0  0  0  0  0  0  0  0  0  0  0
++         0  0  0  0  0  0  0  0  0  0  0  0  0  0  0  0  0
%c cc cc ccc ccc cccc cccc cccc cccc ccccc ccccc ccccc ccccc
%c cc cc ccc ccc cccc cccc cccc cccc ccccc ccccc ccccc ccccc
%f  0.0000000  0.000000000  0.00000000000  0.000000000000000
%f  0.0000000  0.000000000  0.00000000000  0.000000000000000
%i    0    0    0    0      0      0      0      0         0
%i    0    0    0    0      0      0      0      0         0
/*      NGA, ST. LOUIS,MO.                                  
/*   EPHEMERIS COMPUTED FROM  3 DAYS OF DATA                
/* CCCCCCCCCCCCCCCCCCCCCCCCCCCCCCCCCCCCCCCCCCCCCCCCCCCCCCCCC
/* CCCCCCCCCCCCCCCCCCCCCCCCCCCCCCCCCCCCCCCCCCCCCCCCCCCCCCCCC
*  2008  7  5 19 30   .00000000                                                 
P  2  -4239.822611  14941.625417  21394.010681    203.741273                    
V  2 -26609.786669  -7286.363732   -541.895764      -.020943                    
P  3   7273.657045 -22688.641316 -11621.762567    251.549612                    
V  3  11927.590847  -9070.228485  26109.406079       .052386                    
P  4 -16424.532596   9417.078079  18669.838481   -107.927555                    
V  4 -22512.107790  -8012.136714 -15321.815257      -.095382                    
P  5  15220.808644  18721.835507  10982.482419   -368.862573                    
V  5   2176.205505  14465.911060 -26853.519484       .157751                    
P  6  12862.547633 -21935.046579  -7513.147133    157.540948                    
V  6   9249.164870  -4815.303389  29118.365941       .044541                    
P  7 -25618.895795  -7171.221073    128.141444     -8.941127                    
V  7    907.504905  -2540.069759  31747.498601       .060580                    
P  8 -24019.066093    321.949146 -11932.991539   -160.528570                    
V  8 -13604.869232  -6014.578804  26951.005363      -.016240                    
P  9  17051.362936  14563.956996 -14986.713596      3.913520                    
V  9 -17712.590795  -2622.323111 -23579.074486       .017180                    
P 10   -190.527757  24965.131564   8431.858601     -2.674320                    
V 10  -5235.809039 -10061.052068  29514.517468      -.002277                    
P 11 -20092.524774 -12050.020506 -12962.191813     23.798032                    
V 11  16529.334868  -2371.253162 -23364.869595      -.004941                    
P 12  11740.634254  22407.705019   8341.553176   -357.557202                    
V 12    278.623021  10711.478188 -29371.728813       .006388                    
P 13 -18757.890669    539.142445  18669.214877    262.635654                    
V 13  17147.553338 -16654.026349  17608.348642       .015080                    
P 14  21242.578335 -14870.465737  -5386.755505   -247.593008                    
V 14  -3776.747391   6176.742422 -31465.838478       .043774                    
P 15     72.496945  18733.718739 -18803.154312   -137.884347                    
V 15 -17891.191310  15965.424548  15829.423083      -.062714                    
P 16   4090.629565 -22517.495943  13366.633095    118.305593                    
V 16   6110.919107  15946.180665  25322.355084      -.016698                    
P 17 -21001.448585  15304.853592  -5015.119339     38.598112                    
V 17   2619.668222  -6588.074241 -30966.323166       .000193                    
P 18  16151.652134   6149.076300 -20075.572903   -159.787038                    
V 18   4630.519347  25457.318991  11052.906485       .042919                    
P 19     33.264624 -18005.495035 -19375.457059     33.105900                    
V 19  19809.516415 -15089.700933  14185.723376       .005313                    
P 20 -12885.533210 -21254.270144   9296.226700    110.591583                    
V 20   -396.572691 -12328.017294 -28343.595387      -.008685                    
P 21  26079.212211   4122.610823  -4899.495921     59.017691                    
V 21   5233.115616   4736.126275  29980.898980      -.012816                    
P 22  13210.719633  -9734.892649 -20718.306835    211.493744                    
V 22   6514.951729  25941.449669  -8034.284601      -.001277                    
P 23 -11092.593577 -10063.049501  21872.003372    362.880940                    
V 23  19959.161409 -19489.845094    902.642258       .018921                    
P 24  21455.012959  13208.060470   8116.969453    107.197779                    
V 24 -10614.452389   -309.826869  29427.584230       .029578                    
P 25 -23329.475975  -9809.396856   8106.887046   -182.385706                    
V 25  10149.527878   -814.605237  29698.961126      -.077304                    
P 26  -4405.369309  19474.939049 -17719.239910    287.001072                    
V 26 -16973.408159  13540.499602  20172.820273       .070248                    
P 27 -26133.052468  -4836.618852  -1019.686504    200.637349                    
V 27  -1547.255904  -2833.322419  31838.926553       .027988                    
P 28 -13354.316994   7618.185940 -21234.239902    -20.751203                    
V 28  -6915.864025 -27050.363638  -5584.973155      -.002527                    
P 29  17324.259105   2940.486975  20026.253377    -41.967702                    
V 29 -17523.998360  18118.628150  12604.579892       .003959                    
P 30  16351.525278  11489.184875  17200.012958     84.493280                    
V 30   4679.545034  22104.527917 -18738.842214       .018958                    
P 31  14550.186587 -10257.170320  19949.123491    -25.234638                    
V 31  23700.195042   7480.945803 -13468.388574       .005409                    
P 32  -6699.647492 -25639.638863   3301.581763    304.506030                    
V 32   1703.067731  -3982.335446 -31461.600626       .033020                    
EOF
